NORAD_CAT_ID,OBJECT_NAME,OBJECT_TYPE,EPOCH,MEAN_MOTION,ECCENTRICITY,INCLINATION,RA_OF_ASC_NODE,ARG_OF_PERICENTER,MEAN_ANOMALY,BSTAR,MEAN_MOTION_DOT,MEAN_MOTION_DDOT,TLE_LINE0,TLE_LINE1,TLE_LINE2,SEMIMAJOR_AXIS,PERIOD,APOGEE,PERIGEE,DECAYED
52648.0,STARLINK-3854,PAYLOAD,2022-08-28 22:00:00,15.08832576,0.0002032999999999,53.2152,284.6327,43.6999,117.0363,0.0012435,0.00019554,0.0,0 STARLINK-3854,1 52648U 22052BC  22240.91667824  .00019554  00000-0  12435-2 0  9990,2 52648  53.2152 284.6327 0002033  43.6999 117.0363 15.08832576  1305,6917.903,95.438,541.174,538.362,0.0
52648.0,STARLINK-3854,PAYLOAD,2022-08-29 04:00:00,15.08859197,0.0002031,53.2152,283.5104,45.7839,33.6414,-0.0010607,-0.00017139,0.0,0 STARLINK-3854,1 52648U 22052BC  22241.16667824 -.00017139  00000-0 -10607-2 0  9996,2 52648  53.2152 283.5104 0002031  45.7839  33.6414 15.08859197 16988,6917.821999999999,95.436,541.092,538.2819999999998,0.0
52648.0,STARLINK-3854,PAYLOAD,2022-08-29 14:00:01,15.08806439,0.0002161,53.2147,281.6414,38.4466,145.4956,0.0021073,0.00033379,0.0,0 STARLINK-3854,1 52648U 22052BC  22241.58334491  .00033379  00000-0  21073-2 0  9994,2 52648  53.2147 281.6414 0002161  38.4466 145.4956 15.08806439  1308,6917.983,95.44,541.3430000000002,538.3530000000002,0.0
52648.0,STARLINK-3854,PAYLOAD,2022-08-29 22:00:00,15.08808473,0.0001966,53.2146,280.1431,42.6913,152.8267,0.0017449,0.00027567,0.0,0 STARLINK-3854,1 52648U 22052BC  22241.91667824  .00027567  00000-0  17449-2 0  9994,2 52648  53.2146 280.1431 0001966  42.6913 152.8267 15.08808473  1303,6917.977,95.44,541.202,538.482,0.0
52648.0,STARLINK-3854,PAYLOAD,2022-08-30 12:00:00,15.08807258,0.0002183,53.2152,277.5261,40.5996,85.1763,0.0019585,0.00030992,0.0,0 STARLINK-3854,1 52648U 22052BC  22242.50001157  .00030992  00000-0  19585-2 0  9990,2 52648  53.2152 277.5261 0002183  40.5996  85.1763 15.08807258 17183,6917.98,95.44,541.356,538.335,0.0
52648.0,STARLINK-3854,PAYLOAD,2022-08-30 14:00:01,15.08810741,0.0002186,53.2151,277.1519,39.8975,178.7719,0.0022876999999999,0.0003628,0.0,0 STARLINK-3854,1 52648U 22052BC  22242.58334491  .00036280  00000-0  22877-2 0  9992,2 52648  53.2151 277.1519 0002186  39.8975 178.7719 15.08810741  1303,6917.97,95.439,541.347,538.323,0.0
52648.0,STARLINK-3854,PAYLOAD,2022-08-30 22:00:00,15.08812049,0.0002014,53.2161,275.6536,44.0275,186.2259,0.0020277,0.00032106,0.0,0 STARLINK-3854,1 52648U 22052BC  22242.91667824  .00032106  00000-0  20277-2 0  9993,2 52648  53.2161 275.6536 0002014  44.0275 186.2259 15.08812049  1303,6917.965999999999,95.439,541.224,538.438,0.0
52648.0,STARLINK-3854,PAYLOAD,2022-08-31 14:00:01,15.08826512,0.0002243,53.2158,272.6625,40.995,212.4288,0.0018808,0.00029761,0.0,0 STARLINK-3854,1 52648U 22052BC  22243.58334491  .00029761  00000-0  18808-2 0  9998,2 52648  53.2158 272.6625 0002243  40.9950 212.4288 15.08826512  1308,6917.922,95.438,541.3380000000002,538.235,0.0
52648.0,STARLINK-3854,PAYLOAD,2022-08-31 22:00:00,15.08817606,0.0002094,53.216,271.1642,45.2667,219.7534,0.0024419,0.00038766,0.0,0 STARLINK-3854,1 52648U 22052BC  22243.91667824  .00038766  00000-0  24419-2 0  9994,2 52648  53.2160 271.1642 0002094  45.2667 219.7534 15.08817606  1309,6917.949000000001,95.439,541.262,538.365,0.0
52648.0,STARLINK-3854,PAYLOAD,2022-09-01 04:00:01,15.08854387,0.0002165,53.2162,270.0423,47.0179,136.7471,-0.0010913,-0.00017622,0.0,0 STARLINK-3854,1 52648U 22052BC  22244.16668981 -.00017622  00000-0 -10913-2 0  9991,2 52648  53.2162 270.0423 0002165  47.0179 136.7471 15.08854387 17439,6917.8359999999975,95.437,541.1990000000002,538.2040000000002,0.0
52648.0,STARLINK-3854,PAYLOAD,2022-09-01 14:00:01,15.08838284,0.000233,53.216,268.1729,41.5705,246.6985,0.001172,0.00018413,0.0,0 STARLINK-3854,1 52648U 22052BC  22244.58335648  .00018413  00000-0  11720-2 0  9992,2 52648  53.2160 268.1729 0002330  41.5705 246.6985 15.08838284  1300,6917.886,95.438,541.363,538.139,0.0
52648.0,STARLINK-3854,PAYLOAD,2022-09-01 22:00:00,15.08824439,0.0002194,53.2163,266.6747,46.1932,253.623,0.0028076999999999,0.00044662,0.0,0 STARLINK-3854,1 52648U 22052BC  22244.91667824  .00044662  00000-0  28077-2 0  9991,2 52648  53.2163 266.6747 0002194  46.1932 253.6230 15.08824439  1305,6917.928000000001,95.439,541.311,538.275,0.0
52648.0,STARLINK-3854,PAYLOAD,2022-09-02 04:00:00,15.08865042,0.0002279999999999,53.2165,265.553,47.2724,171.2338,-0.0012105,-0.00019516,0.0,0 STARLINK-3854,1 52648U 22052BC  22245.16667824 -.00019516  00000-0 -12105-2 0  9996,2 52648  53.2165 265.5530 0002280  47.2724 171.2338 15.08865042 17588,6917.804,95.436,541.246,538.092,0.0
52648.0,STARLINK-3854,PAYLOAD,2022-09-02 14:00:01,15.08863172,0.000239,53.2164,263.6835,41.48,281.5386,-0.00195,-0.0003121,0.0,0 STARLINK-3854,1 52648U 22052BC  22245.58334491 -.00031210  00000-0 -19500-2 0  9994,2 52648  53.2164 263.6835 0002390  41.4800 281.5386 15.08863172  1300,6917.81,95.436,541.328,538.021,0.0
52648.0,STARLINK-3854,PAYLOAD,2022-09-02 22:00:01,15.08805653,0.0002201,53.2167,262.1853,45.2656,289.4404,0.003038,0.00048349,0.0,0 STARLINK-3854,1 52648U 22052BC  22245.91668981  .00048349  00000-0  30380-2 0  9993,2 52648  53.2167 262.1853 0002201  45.2656 289.4404 15.08805653  1307,6917.985,95.44,541.373,538.328,0.0
52648.0,STARLINK-3854,PAYLOAD,2022-09-03 12:00:00,15.08814285,0.0002461999999999,53.217,259.5688,41.7605,223.1545,0.0028504999999999,0.00045339,0.0,0 STARLINK-3854,1 52648U 22052BC  22246.50001157  .00045339  00000-0  28505-2 0  9997,2 52648  53.2170 259.5688 0002462  41.7605 223.1545 15.08814285 17782,6917.959,95.439,541.5269999999998,538.121,0.0
52648.0,STARLINK-3854,PAYLOAD,2022-09-03 14:00:01,15.088408,0.0002435,53.2168,259.1943,41.5549,316.2504,0.00014715,2.054e-05,0.0,0 STARLINK-3854,1 52648U 22052BC  22246.58334491  .00002054  00000-0  14715-3 0  9991,2 52648  53.2168 259.1943 0002435  41.5549 316.2504 15.08840800  1306,6917.878000000002,95.438,541.427,538.058,0.0
52648.0,STARLINK-3854,PAYLOAD,2022-09-03 22:00:00,15.08817968,0.0002266,53.2171,257.6964,46.7902,322.6205,0.0031937,0.00050877,0.0,0 STARLINK-3854,1 52648U 22052BC  22246.91667824  .00050877  00000-0  31937-2 0  9997,2 52648  53.2171 257.6964 0002266  46.7902 322.6205 15.08817968  1306,6917.948,95.439,541.38,538.245,0.0
52648.0,STARLINK-3854,PAYLOAD,2022-09-04 04:00:00,15.08863613,0.0002358,53.2173,256.5749,46.7003,241.3985,-0.0013306,-0.00021417,0.0,0 STARLINK-3854,1 52648U 22052BC  22247.16667824 -.00021417  00000-0 -13306-2 0  9995,2 52648  53.2173 256.5749 0002358  46.7003 241.3985 15.08863613 17881,6917.808000000001,95.436,541.304,538.0419999999998,0.0
52648.0,STARLINK-3854,PAYLOAD,2022-09-04 14:00:01,15.08869127,0.0002446,53.2169,254.7051,42.3441,350.3259,-0.0020879,-0.00033392,0.0,0 STARLINK-3854,1 52648U 22052BC  22247.58335648 -.00033392  00000-0 -20879-2 0  9995,2 52648  53.2169 254.7051 0002446  42.3441 350.3259 15.08869127  1309,6917.791,95.436,541.3480000000002,537.964,0.0
52648.0,STARLINK-3854,PAYLOAD,2022-09-04 20:00:01,15.08832814,0.0002253,53.2171,253.5817,46.0794,265.2548,0.00050494,7.756e-05,0.0,0 STARLINK-3854,1 52648U 22052BC  22247.83334491  .00007756  00000-0  50494-3 0  9998,2 52648  53.2171 253.5817 0002253  46.0794 265.2548 15.08832814  1305,6917.901999999999,95.438,541.326,538.2090000000002,0.0
52648.0,STARLINK-3854,PAYLOAD,2022-09-05 04:00:00,15.08857953,0.0002295999999999,53.2172,252.0861,46.0617,276.8624,-0.0012401,-0.00019981,0.0,0 STARLINK-3854,1 52648U 22052BC  22248.16667824 -.00019981  00000-0 -12401-2 0  9994,2 52648  53.2172 252.0861 0002296  46.0617 276.8624 15.08857953 18043,6917.826,95.436,541.279,538.102,0.0
52648.0,STARLINK-3854,PAYLOAD,2022-09-05 14:00:01,15.08865514,0.0002369,53.2165,250.2161,42.354,25.0666,-0.0023813,-0.00038015,0.0,0 STARLINK-3854,1 52648U 22052BC  22248.58334491 -.00038015  00000-0 -23813-2 0  9999,2 52648  53.2165 250.2161 0002369  42.3540  25.0666 15.08865514  1306,6917.802,95.436,541.306,538.029,0.0
52648.0,STARLINK-3854,PAYLOAD,2022-09-05 22:00:00,15.08809603,0.0002130999999999,53.2166,248.7184,46.7581,32.2793,0.0024125999999999,0.00038286,0.0,0 STARLINK-3854,1 52648U 22052BC  22248.91667824  .00038286  00000-0  24126-2 0  9991,2 52648  53.2166 248.7184 0002131  46.7581  32.2793 15.08809603  1302,6917.973000000001,95.439,541.313,538.364,0.0
52648.0,STARLINK-3854,PAYLOAD,2022-09-06 04:00:00,15.08845868,0.0002233,53.2166,247.5973,45.5137,312.1997,-0.0015779,-0.00025318,0.0,0 STARLINK-3854,1 52648U 22052BC  22249.16667824 -.00025318  00000-0 -15779-2 0  9997,2 52648  53.2166 247.5973 0002233  45.5137 312.1997 15.08845868 18196,6917.861999999999,95.437,541.2719999999998,538.183,0.0
52648.0,STARLINK-3854,PAYLOAD,2022-09-06 14:00:01,15.08844984,0.0002323,53.2159,245.7272,43.3412,58.8516,-0.0009475,-0.00015339,0.0,0 STARLINK-3854,1 52648U 22052BC  22249.58334491 -.00015339  00000-0 -94750-3 0  9993,2 52648  53.2159 245.7272 0002323  43.3412  58.8516 15.08844984  1306,6917.865,95.437,541.337,538.123,0.0
52648.0,STARLINK-3854,PAYLOAD,2022-09-06 20:00:01,15.08814352,0.0002138,53.2158,244.6037,47.4377,333.4586,0.0026624,0.0004231,0.0,0 STARLINK-3854,1 52648U 22052BC  22249.83334491  .00042310  00000-0  26624-2 0  9992,2 52648  53.2158 244.6037 0002138  47.4377 333.4586 15.08814352 18292,6917.959,95.439,541.303,538.345,0.0
52648.0,STARLINK-3854,PAYLOAD,2022-09-06 22:00:00,15.08826561,0.000215,53.2158,244.2295,48.4742,65.3143,0.001496,0.00023593,0.0,0 STARLINK-3854,1 52648U 22052BC  22249.91667824  .00023593  00000-0  14960-2 0  9992,2 52648  53.2158 244.2295 0002150  48.4742  65.3143 15.08826561  1304,6917.920999999999,95.438,541.274,538.299,0.0
52648.0,STARLINK-3854,PAYLOAD,2022-09-07 04:00:00,15.0885893,0.0002226,53.2158,243.1085,46.1904,346.2886,-0.0041241,-0.00065365,0.0,0 STARLINK-3854,1 52648U 22052BC  22250.16667824 -.00065365  00000-0 -41241-2 0  9998,2 52648  53.2158 243.1085 0002226  46.1904 346.2886 15.08858930 18340,6917.823,95.436,541.227,538.148,0.0
